ONEWEB-0707             
1 61612U 24188U   25006.58334491  .00000015  00000+0  00000+0 0  9993
2 61612  87.4881 141.9052 0005258  51.0822   6.6492 13.66881052 12295
ONEWEB-0708             
1 61613U 24188V   25006.58334491  .00000015  00000+0  00000+0 0  9994
2 61613  87.4809 141.8833 0003425   4.8386 165.6881 13.62687303 12520
